[{"OBJECT_NAME":"STARLINK-31270","OBJECT_ID":"2024-044C","EPOCH":"2026-03-09T10:07:31.782432","MEAN_MOTION":15.27567119,"ECCENTRICITY":7.702e-5,"INCLINATION":43.0016,"RA_OF_ASC_NODE":108.6228,"ARG_OF_PERICENTER":219.3412,"MEAN_ANOMALY":140.7384,"EPHEMERIS_TYPE":0,"CLASSIFICATION_TYPE":"U","NORAD_CAT_ID":59154,"ELEMENT_SET_NO":999,"REV_AT_EPOCH":11355,"BSTAR":-6.606363e-5,"MEAN_MOTION_DOT":-2.079e-5,"MEAN_MOTION_DDOT":0},{"OBJECT_NAME":"TROLL","OBJECT_ID":"2025-009BB","EPOCH":"2026-03-09T05:24:19.835712","MEAN_MOTION":15.28164315,"ECCENTRICITY":0.00018165,"INCLINATION":97.3932,"RA_OF_ASC_NODE":150.7169,"ARG_OF_PERICENTER":59.185,"MEAN_ANOMALY":300.9568,"EPHEMERIS_TYPE":0,"CLASSIFICATION_TYPE":"U","NORAD_CAT_ID":62658,"ELEMENT_SET_NO":999,"REV_AT_EPOCH":11817,"BSTAR":0.00048220305,"MEAN_MOTION_DOT":0.00013174,"MEAN_MOTION_DDOT":0}]
