STARLINK-31270          
1 59154U 24044C   26068.42189563 -.00002079  00000+0 -66064-4 0  9993
2 59154  43.0016 108.6228 0000770 219.3412 140.7384 15.27567119113559
TROLL                   
1 62658U 25009BB  26068.22522958  .00013174  00000+0  48220-3 0  9994
2 62658  97.3932 150.7169 0001816  59.1850 300.9568 15.28164315118170
